#cP2021  8 15  0  0  0.00000000      96 ORBIT IGb14 HLM  IGS
## 2171      0.00000000   900.00000000 59441 0.0000000000000
+   31   G01G02G03G04G05G06G07G08G09G10G12G13G14G15G16G17G18
+        G19G20G21G22G23G24G25G26G27G28G29G30G31G32  0  0  0
+          0  0  0  0  0  0  0  0  0  0  0  0  0  0  0  0  0
+          0  0  0  0  0  0  0  0  0  0  0  0  0  0  0  0  0
+          0  0  0  0  0  0  0  0  0  0  0  0  0  0  0  0  0
++         1  2  2  2  1  2  1  2  2  2  2  1  2  1  2  2  2
++         2  1  1  2  2  1  2  1  2  2  2  1  1  2  0  0  0
++         0  0  0  0  0  0  0  0  0  0  0  0  0  0  0  0  0
++         0  0  0  0  0  0  0  0  0  0  0  0  0  0  0  0  0
++         0  0  0  0  0  0  0  0  0  0  0  0  0  0  0  0  0
%c G  cc GPS ccc cccc cccc cccc cccc ccccc ccccc ccccc ccccc
%c cc cc ccc ccc cccc cccc cccc cccc ccccc ccccc ccccc ccccc
%f  1.2500000  1.025000000  0.00000000000  0.000000000000000
%f  0.0000000  0.000000000  0.00000000000  0.000000000000000
%i    0    0    0    0      0      0      0      0         0
%i    0    0    0    0      0      0      0      0         0
/* FINAL ORBIT COMBINATION FROM WEIGHTED AVERAGE OF:        
/* cod emr esa gfz grg jpl mit ngs sio                      
/* REFERENCED TO IGS TIME (IGST) AND TO WEIGHTED MEAN POLE: 
/* PCV:IGS14_2163 OL/AL:FES2004  NONE     Y  ORB:CMB CLK:CMB
*  2021  8 15  0 45  0.00000000
PG01 -16586.436642  -4377.794517  20101.660214    597.433577  3  6  5  78       
PG02  13994.809739  22376.588415  -1952.522979   -626.348071  6  8  7  99       
PG03 -18714.582559   5143.795786  17984.597660   -254.453833  7  3  3 105       
PG04 -26250.478549   -301.907303  -4251.596295   -203.887910  9  8  7  88       
PG05  13689.584028   7098.016177 -21793.223630    -51.144656  7  7  7  91       
PG06   5295.574932  24672.510632   8245.528858     56.183498  6  5  6  98       
PG07 -10898.766690  11769.183213 -20721.211407    225.091860  6  4  4 101       
PG08 -25009.198524  -6522.903595  -6798.016556    -32.666659 11  5  9  81       
PG09 -20807.851429   8564.759128 -14195.109161   -358.807181  7  4  5  87       
PG10  10408.624092 -23257.497657   7080.720718   -182.633874  7  6  5  88       
PG12  18904.217250  -3752.112296  17966.519373    -83.007833  7  5  8 115       
PG13  19589.402586  13206.004043 -12421.455597    171.440357  6  3  6  84       
PG14 -11179.661893  22921.144525   7328.330154     23.660051  7  6  6  51       
PG15  25607.955034   4330.656629  -6749.741785   -128.330992  7  5  5  55       
PG16  -8516.084208 -12903.089396 -21790.449461   -373.832415  7  8  6  54       
PG17  -8105.671115  13506.509524  21815.781805    489.469182  6  5  6  89       
PG18   9099.116628 -14286.928504 -20449.692085    332.697542  5  6  5 109       
PG19   2173.954703  15110.506252  21475.838899     39.715689  5  5  6  79       
PG20   5968.232129  18234.027490 -18502.800576    519.650844  5  7  5 110       
PG21 -19003.572867 -11176.494483  15876.684189    137.252165  4  5  5  85       
PG22 -16352.302058  -2390.512977  20938.606502   -538.109936  6  5  4  89       
PG23  16954.251157 -19925.349795  -4395.621972     70.736516  7  2  6  90       
PG24  18772.641290   8301.973588  16810.951995    208.438031  5  5  4  93       
PG25  19258.538767 -14424.891447  10676.327576    191.261993  6  2  5  98       
PG26    -53.551617 -21280.723296 -15774.541257    122.709044  6  5  6  91       
PG27 -18200.259797 -12172.901336 -15469.630088   -178.390990  6  5  9  78       
PG28  -6809.591679  22208.792223  13600.083130    519.724014  8  7  5 110       
PG29  22701.078118  -4977.643297 -12962.560743   -396.328054  6  8  5  90       
PG30  -2308.667478  21847.918523 -14686.855174   -462.269499  6  6  5  94       
PG31  -6112.462067 -24856.563346   6003.042558   -134.309388  2  4  4  93       
PG32   3859.612139 -14986.039025  21689.766604      7.645564  5  5  5  81       
*  2021  8 15  1  0  0.00000000
PG01 -17510.709032  -6443.344902  18764.157967    597.423434  2  6  5  65       
PG02  13843.089922  22619.261209    912.622120   -626.350422  5  7  7  85       
PG03 -17629.269155   3269.638745  19460.597819   -254.465669  7  3  2 102       
PG04 -26551.053645   -578.906423  -1423.638195   -203.888278  9  8  7  87       
PG05  12408.511933   9196.424257 -21760.867799    -51.145639  6  6  6  80       
PG06   4656.870181  23778.558597  10864.994917     56.189267  5  5  6  97       
PG07 -12064.227114   9570.101386 -21237.415753    225.099035  5  4  4 101       
PG08 -24082.436886  -6684.989088  -9444.116794    -32.668788 10  4  9  77       
PG09 -22283.801046   8288.190492 -11930.060652   -358.808070  7  3  6  81       
PG10  10960.693065 -23662.839053   4289.360643   -182.640941  6  6  5  94       
PG12  17672.743270  -1938.200201  19438.846311    -83.012642  7  5  8 103       
PG13  18061.607489  13085.470036 -14671.863239    171.443942  5  3  6  84       
PG14 -11792.645319  23321.814771   4589.304326     23.652244  7  6  6  70       
PG15  24757.014940   4669.162143  -9319.394020   -128.328712  7  4  5  39       
PG16  -6964.741505 -14745.070419 -21115.715963   -373.837830  7  7  6  70       
PG17 -10437.365126  13178.646244  20994.098288    489.474596  5  5  6  80       
PG18  10189.372072 -12164.015549 -21298.990482    332.694436  5  6  5 103       
PG19   -327.287642  14717.982391  21834.958149     39.720185  5  5  5  80       
PG20   4970.591310  19997.444618 -16928.912653    519.650292  5  6  4 108       
PG21 -19687.560231 -12599.180399  13789.652531    137.254013  5  5  5  80       
PG22 -15298.036262  -4543.185329  21396.131925   -538.101459  6  6  3  78       
PG23  16809.354494 -19239.112120  -7161.352145     70.731958  8  2  7  99       
PG24  19547.252532   9997.717011  14966.563498    208.448137  5  5  4  79       
PG25  18690.117383 -13117.716193  13072.061963    191.267833  5  2  5  93       
PG26   1018.604882 -22614.089720 -13722.692031    122.713028  6  5  6  89       
PG27 -16363.396785 -12184.420487 -17382.894039   -178.396052  6  5  9  89       
PG28  -7769.370878  23150.193773  11227.061795    519.717846  7  6  5 117       
PG29  24000.175239  -4648.725946 -10508.124910   -396.333379  6  8  4 103       
PG30  -3298.616912  20306.678849 -16598.868573   -462.273197  5  6  5  88       
PG31  -5481.153770 -24199.048524   8702.983534   -134.310976  2  4  3  81       
PG32   6287.559706 -14812.843412  21218.005308      7.643142  5  5  4  84       
*  2021  8 15  1 15  0.00000000
PG01 -18463.116503  -8301.060854  17100.146673    597.413268  2  6  6  52       
PG02  13526.272006  22599.147228   3762.080901   -626.352648  4  6  7  91       
PG03 -16571.088118   1211.704486  20597.968899   -254.477552  6  4     93       
PG04 -26544.767776   -829.119506   1428.727150   -203.888675  9  8  7  87       
PG05  11248.741822  11338.577101 -21359.289677    -51.146876  6  6  5  86       
PG06   3826.517308  22673.463423  13297.361739     56.195058  5  5  6  95       
PG07 -13352.913186   7402.346813 -21374.385361    225.106240  5  4  4  94       
PG08 -22876.557066  -6902.825117 -11930.521975    -32.670805 10  2  9  82       
PG09 -23505.078537   8082.382113  -9460.624892   -358.808955  6  3  6  84       
PG10  11331.433263 -23816.745626   1423.080990   -182.647864  6  5  5  94       
PG12  16455.957471     62.503964  20568.357223    -83.017505  8  5  7  94       
PG13  16292.546681  13015.878922 -16673.621038    171.449149  5  4  6  82       
PG14 -12215.292116  23487.782133   1771.054354     23.644479  7  6  6  79       
PG15  23649.310905   5078.716721 -11733.999889   -128.326154  6  4  5  38       
PG16  -5567.558400 -16593.606766 -20082.497996   -373.843711  7  7  6  67       
PG17 -12674.763636  12989.107227  19824.481040    489.479616  5  5  6  80       
PG18  11427.250644 -10036.878637 -21781.796716    332.691349  6  7  5 101       
PG19  -2866.893923  14459.962131  21808.651864     39.724806  5  4  5  71       
PG20   4132.727234  21627.148145 -15067.208036    519.650232  5  6  4  96       
PG21 -20309.747727 -13786.659225  11480.135376    137.256071  5  5  5  87       
PG22 -14337.785354  -6770.702755  21490.913484   -538.092917  6  6  3  74       
PG23  16554.556385 -18276.806702  -9803.447990     70.727437  8  3  7  93       
PG24  20277.505324  11465.560849  12864.913565    208.458208  4  5  4  84       
PG25  18059.415236 -11555.674740  15236.386036    191.273646  5  1  5  95       
PG26   1913.111599 -23780.421595 -11432.320895    122.717042  6  4  5  87       
PG27 -14330.820406 -12298.375230 -19005.045244   -178.401119  6  5  8  70       
PG28  -8520.947260  23918.635868   8667.574417    519.711733  7  6  4 107       
PG29  25028.331155  -4413.097236  -7873.830909   -396.338332  5  8  4  91       
PG30  -4456.013454  18639.029630 -18221.146198   -462.276837  5  6  5  88       
PG31  -4674.461618 -23310.391614  11248.558775   -134.312788  2  4  4  92       
PG32   8649.594477 -14764.994136  20384.006918      7.640757  5  5  4  84       
EOF
